start=new Date('2023-01-20T00:00:00.000Z').valueOf();
sats=[{"CLASSIFICATION_TYPE":"U","COUNTRY_CODE":"US","RCS_SIZE":"LARGE","EPHEMERIS_TYPE":"0","OBJECT_NAME":"STARLINK-2758","MEAN_MOTION_DDOT":"0.0000000000000","BSTAR":"0.00011350000000","DECAY_DATE":null,"RA_OF_ASC_NODE":"216.0440","SEMIMAJOR_AXIS":"6925.357","ELEMENT_SET_NO":"999","EPOCH":"2023-01-19T20:13:52.984704","MEAN_ANOMALY":"267.7172","FILE":"3755021","TLE_LINE2":"2 48638  53.0496 216.0440 0001309  92.3967 267.7172 15.06397102 92124","MEAN_ELEMENT_THEORY":"SGP4","OBJECT_ID":"2021-044A","CENTER_NAME":"EARTH","SITE":"AFETR","LAUNCH_DATE":"2021-05-26","PERIAPSIS":"546.316","ARG_OF_PERICENTER":"92.3967","TIME_SYSTEM":"UTC","REV_AT_EPOCH":"9212","APOAPSIS":"548.129","MEAN_MOTION_DOT":"0.00001409","OBJECT_TYPE":"PAYLOAD","PERIOD":"95.592","TLE_LINE1":"1 48638U 21044A   23019.84297436  .00001409  00000-0  11350-3 0  9995","NORAD_CAT_ID":"48638","GP_ID":"223501660","MEAN_MOTION":"15.06397102","INCLINATION":"53.0496","ECCENTRICITY":"0.00013090","REF_FRAME":"TEME"},{"TIME_SYSTEM":"UTC","ARG_OF_PERICENTER":"80.1953","MEAN_MOTION_DOT":"0.00000595","APOAPSIS":"548.028","REV_AT_EPOCH":"9118","MEAN_MOTION":"15.06401104","REF_FRAME":"TEME","INCLINATION":"53.0501","ECCENTRICITY":"0.00011810","PERIOD":"95.592","OBJECT_TYPE":"PAYLOAD","GP_ID":"223497124","TLE_LINE1":"1 48639U 21044B   23019.56284327  .00000595  00000-0  58811-4 0  9999","NORAD_CAT_ID":"48639","ELEMENT_SET_NO":"999","SEMIMAJOR_AXIS":"6925.345","DECAY_DATE":null,"RA_OF_ASC_NODE":"217.3044","MEAN_ANOMALY":"279.9170","EPOCH":"2023-01-19T13:30:29.658528","COUNTRY_CODE":"US","CLASSIFICATION_TYPE":"U","OBJECT_NAME":"STARLINK-2739","MEAN_MOTION_DDOT":"0.0000000000000","BSTAR":"0.00005881100000","RCS_SIZE":"LARGE","EPHEMERIS_TYPE":"0","LAUNCH_DATE":"2021-05-26","PERIAPSIS":"546.392","SITE":"AFETR","CENTER_NAME":"EARTH","TLE_LINE2":"2 48639  53.0501 217.3044 0001181  80.1953 279.9170 15.06401104 91180","FILE":"3754973","MEAN_ELEMENT_THEORY":"SGP4","OBJECT_ID":"2021-044B"},{"APOAPSIS":"547.877","REV_AT_EPOCH":"9117","MEAN_MOTION_DOT":"0.00008660","ARG_OF_PERICENTER":"109.1000","TIME_SYSTEM":"UTC","TLE_LINE1":"1 48640U 21044C   23019.55646312  .00008660  00000-0  59940-3 0  9990","NORAD_CAT_ID":"48640","GP_ID":"223496872","OBJECT_TYPE":"PAYLOAD","PERIOD":"95.591","INCLINATION":"53.0505","ECCENTRICITY":"0.00010050","REF_FRAME":"TEME","MEAN_MOTION":"15.06410477","RCS_SIZE":"LARGE","EPHEMERIS_TYPE":"0","OBJECT_NAME":"STARLINK-2736","MEAN_MOTION_DDOT":"0.0000000000000","BSTAR":"0.00059940000000","CLASSIFICATION_TYPE":"U","COUNTRY_CODE":"US","MEAN_ANOMALY":"251.0098","EPOCH":"2023-01-19T13:21:18.413568","DECAY_DATE":null,"RA_OF_ASC_NODE":"217.6146","ELEMENT_SET_NO":"999","SEMIMAJOR_AXIS":"6925.316","FILE":"3754973","TLE_LINE2":"2 48640  53.0505 217.6146 0001005 109.1000 251.0098 15.06410477 91174","MEAN_ELEMENT_THEORY":"SGP4","OBJECT_ID":"2021-044C","CENTER_NAME":"EARTH","SITE":"AFETR","LAUNCH_DATE":"2021-05-26","PERIAPSIS":"546.485"},{"DECAY_DATE":null,"RA_OF_ASC_NODE":"222.2697","ELEMENT_SET_NO":"999","SEMIMAJOR_AXIS":"6925.353","EPOCH":"2023-01-19T13:39:09.436608","MEAN_ANOMALY":"271.1056","CLASSIFICATION_TYPE":"U","COUNTRY_CODE":"US","EPHEMERIS_TYPE":"0","RCS_SIZE":"LARGE","BSTAR":"0.00013842000000","MEAN_MOTION_DDOT":"0.0000000000000","OBJECT_NAME":"STARLINK-2754","SITE":"AFETR","PERIAPSIS":"546.406","LAUNCH_DATE":"2021-05-26","OBJECT_ID":"2021-044D","MEAN_ELEMENT_THEORY":"SGP4","FILE":"3754973","TLE_LINE2":"2 48641  53.0526 222.2697 0001173  89.0067 271.1056 15.06398560 91115","CENTER_NAME":"EARTH","ARG_OF_PERICENTER":"89.0067","TIME_SYSTEM":"UTC","APOAPSIS":"548.030","REV_AT_EPOCH":"9111","MEAN_MOTION_DOT":"0.00001781","MEAN_MOTION":"15.06398560","ECCENTRICITY":"0.00011730","INCLINATION":"53.0526","REF_FRAME":"TEME","OBJECT_TYPE":"PAYLOAD","PERIOD":"95.592","NORAD_CAT_ID":"48641","TLE_LINE1":"1 48641U 21044D   23019.56885922  .00001781  00000-0  13842-3 0  9992","GP_ID":"223496123"},{"MEAN_MOTION_DOT":"0.00005334","APOAPSIS":"548.379","REV_AT_EPOCH":"9110","TIME_SYSTEM":"UTC","ARG_OF_PERICENTER":"89.7237","GP_ID":"223496373","TLE_LINE1":"1 48642U 21044E   23019.51630848  .00005334  00000-0  37664-3 0  9999","NORAD_CAT_ID":"48642","PERIOD":"95.591","OBJECT_TYPE":"PAYLOAD","REF_FRAME":"TEME","INCLINATION":"53.0533","ECCENTRICITY":"0.00017300","MEAN_MOTION":"15.06410766","OBJECT_NAME":"STARLINK-2646","MEAN_MOTION_DDOT":"0.0000000000000","BSTAR":"0.00037664000000","RCS_SIZE":"LARGE","EPHEMERIS_TYPE":"0","COUNTRY_CODE":"US","CLASSIFICATION_TYPE":"U","MEAN_ANOMALY":"270.3950","EPOCH":"2023-01-19T12:23:29.052672","SEMIMAJOR_AXIS":"6925.316","ELEMENT_SET_NO":"999","RA_OF_ASC_NODE":"222.4986","DECAY_DATE":null,"CENTER_NAME":"EARTH","TLE_LINE2":"2 48642  53.0533 222.4986 0001730  89.7237 270.3950 15.06410766 91108","FILE":"3754973","MEAN_ELEMENT_THEORY":"SGP4","OBJECT_ID":"2021-044E","LAUNCH_DATE":"2021-05-26","PERIAPSIS":"545.982","SITE":"AFETR"},{"PERIAPSIS":"546.090","LAUNCH_DATE":"2021-05-26","SITE":"AFETR","CENTER_NAME":"EARTH","OBJECT_ID":"2021-044F","MEAN_ELEMENT_THEORY":"SGP4","FILE":"3754973","TLE_LINE2":"2 48643  53.0513 222.2750 0001606  92.5629 267.5544 15.06403815 91118","EPOCH":"2023-01-19T13:32:29.069376","MEAN_ANOMALY":"267.5544","ELEMENT_SET_NO":"999","SEMIMAJOR_AXIS":"6925.337","RA_OF_ASC_NODE":"222.2750","DECAY_DATE":null,"MEAN_MOTION_DDOT":"0.0000000000000","BSTAR":"0.00021621000000","OBJECT_NAME":"STARLINK-2704","EPHEMERIS_TYPE":"0","RCS_SIZE":"LARGE","COUNTRY_CODE":"US","CLASSIFICATION_TYPE":"U","REF_FRAME":"TEME","ECCENTRICITY":"0.00016060","INCLINATION":"53.0513","MEAN_MOTION":"15.06403815","GP_ID":"223496625","NORAD_CAT_ID":"48643","TLE_LINE1":"1 48643U 21044F   23019.56422534  .00002941  00000-0  21621-3 0  9993","PERIOD":"95.592","OBJECT_TYPE":"PAYLOAD","MEAN_MOTION_DOT":"0.00002941","APOAPSIS":"548.314","REV_AT_EPOCH":"9111","TIME_SYSTEM":"UTC","ARG_OF_PERICENTER":"92.5629"},{"MEAN_MOTION":"15.06402154","REF_FRAME":"TEME","INCLINATION":"53.0505","ECCENTRICITY":"0.00015450","PERIOD":"95.592","OBJECT_TYPE":"PAYLOAD","GP_ID":"223497372","TLE_LINE1":"1 48644U 21044G   23019.56148742  .00002639  00000-0  19601-3 0  9999","NORAD_CAT_ID":"48644","TIME_SYSTEM":"UTC","ARG_OF_PERICENTER":"81.3517","MEAN_MOTION_DOT":"0.00002639","REV_AT_EPOCH":"9111","APOAPSIS":"548.277","LAUNCH_DATE":"2021-05-26","PERIAPSIS":"546.137","SITE":"AFETR","CENTER_NAME":"EARTH","TLE_LINE2":"2 48644  53.0505 222.3034 0001545  81.3517 278.7646 15.06402154 91112","FILE":"3754973","MEAN_ELEMENT_THEORY":"SGP4","OBJECT_ID":"2021-044G","ELEMENT_SET_NO":"999","SEMIMAJOR_AXIS":"6925.342","DECAY_DATE":null,"RA_OF_ASC_NODE":"222.3034","MEAN_ANOMALY":"278.7646","EPOCH":"2023-01-19T13:28:32.513088","COUNTRY_CODE":"US","CLASSIFICATION_TYPE":"U","OBJECT_NAME":"STARLINK-2695","BSTAR":"0.00019601000000","MEAN_MOTION_DDOT":"0.0000000000000","RCS_SIZE":"LARGE","EPHEMERIS_TYPE":"0"},{"REV_AT_EPOCH":"9111","APOAPSIS":"548.259","MEAN_MOTION_DOT":"0.00001955","ARG_OF_PERICENTER":"95.6826","TIME_SYSTEM":"UTC","INCLINATION":"53.0515","ECCENTRICITY":"0.00015090","REF_FRAME":"TEME","MEAN_MOTION":"15.06399858","TLE_LINE1":"1 48645U 21044H   23019.55780168  .00001955  00000-0  15008-3 0  9990","NORAD_CAT_ID":"48645","GP_ID":"223495624","OBJECT_TYPE":"PAYLOAD","PERIOD":"95.592","EPOCH":"2023-01-19T13:23:14.065152","MEAN_ANOMALY":"264.4335","RA_OF_ASC_NODE":"222.3285","DECAY_DATE":null,"SEMIMAJOR_AXIS":"6925.349","ELEMENT_SET_NO":"999","RCS_SIZE":"LARGE","EPHEMERIS_TYPE":"0","OBJECT_NAME":"STARLINK-2733","BSTAR":"0.00015008000000","MEAN_MOTION_DDOT":"0.0000000000000","CLASSIFICATION_TYPE":"U","COUNTRY_CODE":"US","SITE":"AFETR","LAUNCH_DATE":"2021-05-26","PERIAPSIS":"546.169","FILE":"3754973","TLE_LINE2":"2 48645  53.0515 222.3285 0001509  95.6826 264.4335 15.06399858 91116","MEAN_ELEMENT_THEORY":"SGP4","OBJECT_ID":"2021-044H","CENTER_NAME":"EARTH"},{"COUNTRY_CODE":"US","CLASSIFICATION_TYPE":"U","MEAN_MOTION_DDOT":"0.0000000000000","BSTAR":"0.00003972500000","OBJECT_NAME":"STARLINK-2732","EPHEMERIS_TYPE":"0","RCS_SIZE":"LARGE","SEMIMAJOR_AXIS":"6925.362","ELEMENT_SET_NO":"999","DECAY_DATE":null,"RA_OF_ASC_NODE":"221.1540","MEAN_ANOMALY":"276.3204","EPOCH":"2023-01-19T19:40:05.242368","CENTER_NAME":"EARTH","OBJECT_ID":"2021-044J","MEAN_ELEMENT_THEORY":"SGP4","TLE_LINE2":"2 48646  53.0508 221.1540 0001024  83.7901 276.3204 15.06395712 92050","FILE":"3755045","PERIAPSIS":"546.518","LAUNCH_DATE":"2021-05-26","SITE":"AFETR","TIME_SYSTEM":"UTC","ARG_OF_PERICENTER":"83.7901","MEAN_MOTION_DOT":"0.00000310","APOAPSIS":"547.936","REV_AT_EPOCH":"9205","PERIOD":"95.592","OBJECT_TYPE":"PAYLOAD","GP_ID":"223502657","NORAD_CAT_ID":"48646","TLE_LINE1":"1 48646U 21044J   23019.81950512  .00000310  00000-0  39725-4 0  9999","MEAN_MOTION":"15.06395712","REF_FRAME":"TEME","ECCENTRICITY":"0.00010240","INCLINATION":"53.0508"},{"DECAY_DATE":null,"RA_OF_ASC_NODE":"223.5503","SEMIMAJOR_AXIS":"6925.346","ELEMENT_SET_NO":"999","EPOCH":"2023-01-19T06:50:27.634848","MEAN_ANOMALY":"261.2495","CLASSIFICATION_TYPE":"U","COUNTRY_CODE":"US","EPHEMERIS_TYPE":"0","RCS_SIZE":"LARGE","BSTAR":"0.00021701000000","MEAN_MOTION_DDOT":"0.0000000000000","OBJECT_NAME":"STARLINK-2691","SITE":"AFETR","PERIAPSIS":"546.378","LAUNCH_DATE":"2021-05-26","OBJECT_ID":"2021-044K","MEAN_ELEMENT_THEORY":"SGP4","TLE_LINE2":"2 48647  53.0512 223.5503 0001202  98.8630 261.2495 15.06400924 91073","FILE":"3754973","CENTER_NAME":"EARTH","ARG_OF_PERICENTER":"98.8630","TIME_SYSTEM":"UTC","APOAPSIS":"548.043","REV_AT_EPOCH":"9107","MEAN_MOTION_DOT":"0.00002952","MEAN_MOTION":"15.06400924","ECCENTRICITY":"0.00012020","INCLINATION":"53.0512","REF_FRAME":"TEME","OBJECT_TYPE":"PAYLOAD","PERIOD":"95.592","NORAD_CAT_ID":"48647","TLE_LINE1":"1 48647U 21044K   23019.28504207  .00002952  00000-0  21701-3 0  9995","GP_ID":"223497125"}];
